#dP2018  1  7  0  0  0.00000000      96 __u+U ITR00 FIT  IAC
## 1983      0.00000000   900.00000000 58125 0.0000000000000
+   88   C01C02C04C05C06C07C08C09C10C11C12C13C14E01E02E03E04
+        E05E07E08E09E11E12E14E18E19E24E26E30G01G02G03G04G05
+        G06G07G08G09G10G11G12G13G14G15G16G17G18G19G20G21G22
+        G23G24G25G26G27G28G29G30G31G32J01J02J03R01R02R03R04
+        R05R06R07R08R09R10R11R13R14R15R16R17R18R19R20R21R22
+        R23R24R26  0  0  0  0  0  0  0  0  0  0  0  0  0  0
++        12 11 12 12  9  9  9  8  9  8  8  8  8  6  7  7  6
++         7  6  6  7  7  7  6  7  6  6  6  7  3  3  4  4  3
++         3  3  3  4  3  3  3  3  3  3  3  3  3  3  3  3  4
++         3  4  3  3  3  4  3  3  3  3  0  0 13  6  6  5  5
++         6  6  6  6  5  5  5  5  5  5  5  5  5  5  5  5  5
++         6  6  8  0  0  0  0  0  0  0  0  0  0  0  0  0  0
%c M  cc GPS ccc cccc cccc cccc cccc ccccc ccccc ccccc ccccc
%c cc cc ccc ccc cccc cccc cccc cccc ccccc ccccc ccccc ccccc
%f  0.0000000  0.000000000  0.00000000000  0.000000000000000
%f  0.0000000  0.000000000  0.00000000000  0.000000000000000
%i    0    0    0    0      0      0      0      0         0
%i    0    0    0    0      0      0      0      0         0
/* INFORMATION & ANALYSIS CENTER (IAC) OF MCC   (RAPID DATA)
/* S/V CLOCKS ARE ALIGNED TO GPS & GLONASS TIME RESPECTIVELY
/* USING THE BROADCAST EPHEMERIS                            
/* PCV:IGS14_1977 OL/AL:FES2004  NONE     YN ORB:CoN CLK:CoN
*  2018 01 07 16 45  0.00000000
PC01 -32292.084206  27094.926903    912.140025    210.186876
PC02   4425.756657  41946.213309     37.652384   -137.625822
PC04 -39599.894457  14478.032160    768.335927   -201.015788
PC05  21877.232362  36057.685135    -62.394081   -114.410829
PC06 -16879.699850  20351.861777 -32686.234489   -670.407194
PC07 -23021.509900  34487.017210   6434.406644   -266.189439
PC08  -6820.429993  32505.639450  26193.074823     99.785931
PC09   -143.612454  25031.176487 -33764.980638   -526.395027
PC10 -10736.137946  35698.810815  19478.435645     72.674545
PC11 -18560.582537   -163.518336  20871.470595   -343.802595
PC12 -21002.534420 -17142.559288   6451.419450    369.634079
PC13   2994.642793  39761.082418  14094.410500   -132.367404
PC14 -27371.324984   5595.651728    308.788565    127.734273
PE01  18750.345905    123.156822  22907.201281   -247.706589
PE02 -18764.393132    -87.335276 -22891.393278      1.053510
PE03 -28852.135363  -6057.417340   2588.594696     15.240301
PE04  24398.126204  -7301.404145  15080.668840     48.609690
PE05 -16421.623776 -15909.647629  18794.543912    346.245490
PE07  -5600.408603  16433.206637 -23973.384229    106.024463
PE08 -24331.401105   7443.432082 -15120.194164   6665.848502
PE09   5513.085477 -16328.701601  24066.686560   6910.083464
PE11    -43.528457 -25812.706361 -14496.344225   1854.132276
PE12  13430.265921 -10359.719328 -24249.673714   3229.663192
PE14  -4357.645936  14893.102048  17502.506492   6651.735758
PE18   4577.579030 -21651.717716 -23896.486283   6521.498540
PE19  28374.424158   7147.322068  -4451.960366     18.108422
PE24  11756.938075 -25320.864747  -9814.367145   6928.992149
PE26  13272.893295  26219.927749  -3574.744580   6412.624270
PE30 -21707.278325  17910.553583  -9198.422167   6179.380373
PG01 -13227.767379  14419.055689  17689.781085    -22.320899
PG02  13826.782294  10698.992868 -19535.527388    234.535035
PG03 -22762.465383  13335.892936  -2856.998733    -13.971562
PG04  -8373.649491 -12490.782998 -22142.558911 999999.999999
PG05  22018.727860    884.038940 -15074.198828    -17.593015
PG06   8114.233223  21138.756071 -13841.695374    414.563652
PG07  -5803.630604  25122.265882  -5103.221446    254.880535
PG08 -21797.476326  -1785.618877  15217.791688    -86.871858
PG09  -3658.190549  15630.885058 -21196.267951    490.930046
PG10  -2840.845449 -15354.533772  21496.321157    142.423812
PG11 -13070.023320  10439.190262  20092.845084   -733.282322
PG12  24239.688825 -10571.945203   -705.131785    356.637210
PG13  22357.810138  10517.529927   9609.015559    -95.219267
PG14 -17991.506969 -18996.839170   5343.302064    -91.987946
PG15  21719.456586   -908.730565  15307.797951   -357.387930
PG16 -22200.199471  -1824.201128 -14913.247901     34.411840
PG17  11517.431685  19996.308810  13659.633153   -132.571066
PG18   8195.388715 -19159.463569  16973.028119    633.590104
PG19  17152.032378  19188.956803   5820.671057   -465.161093
PG20  22695.354190 -13751.532664   -503.694367    497.682718
PG21   2408.760157 -26223.792537  -2449.704184   -444.295215
PG22 -24416.549523   9399.343343   4875.958955   -248.962640
PG23 -15405.031077   7388.844019 -20171.794351   -219.076874
PG24  14201.346352 -11488.939721  19079.885447    -44.469934
PG25  16365.807381 -17028.102489 -12075.406470   -518.535641
PG26 -14154.615398  -9061.870503 -20589.288514   -296.061230
PG27 -23409.049202 -12003.437971   4442.146044    361.205429
PG28  -1974.468115  16115.158338  21662.683311    677.779799
PG29   8420.121861 -12106.432969 -22100.680160    514.428377
PG30   -322.801647  26170.949139   4032.034032    114.511576
PG31  -8201.173069 -20286.261225 -14700.159182    150.224935
PG32 -13314.011719 -19359.339800  12471.534147   -532.433696
PJ01      0.000000      0.000000      0.000000 999999.999999
PJ02      0.000000      0.000000      0.000000 999999.999999
PJ03 -26025.974453  24032.825045  28034.322533      1.227440
PR01 -19559.944599   7627.296845 -14482.364505     20.363495
PR02   -189.236006  10918.650534 -23023.084918    289.012377
PR03  17916.805564   7531.010324 -16467.386012    120.740250
PR04  25494.279871   -554.815309     98.454091    245.091926
PR05  18328.893766  -8214.398212  15714.062650   -225.838384
PR06  -1030.448459 -11084.804169  22933.093086    124.722090
PR07 -18251.093380  -7429.469500  16243.246830    -26.861499
PR08 -25501.397379    158.910723    632.373341    -27.004521
PR09   6550.652658 -22090.463760 -10996.331498     47.969194
PR10  -5469.176340 -11075.366801 -22347.772504     15.439063
PR11 -14538.253512   6374.178099 -19937.246070    -18.820446
PR13  -5630.921282  21862.011087  11858.521869     -6.277343
PR14   5540.742033  11395.677469  22151.064994     23.672281
PR15  13145.432107  -3079.938742  21627.400800     -4.938165
PR16  14403.870970 -19889.964027   6658.262771     82.799845
PR17  14588.834428  20419.231038  -4663.685671     99.173399
PR18  14940.046368   8175.447831 -18946.588077    180.213409
PR19   6933.505270  -8816.633776 -22903.475603    -40.367086
PR20  -5644.946171 -21496.693341 -12549.434135   -322.526933
PR21 -14660.506452 -20272.110246   4915.238779     17.893320
PR22 -14496.707868  -6704.982629  19941.842244     -8.301573
PR23  -4713.671628  11821.239269  22104.702060    128.901650
PR24   6358.024847  21555.172336  12038.069894   -160.772894
PR26  -6005.222856 -21359.020780 -12547.954213     -8.064000
EOF
